TROLL                   
1 62658U 25009BB  26068.22522958  .00013174  00000+0  48220-3 0  9994
2 62658  97.3932 150.7169 0001816  59.1850 300.9568 15.28164315118170
STARLINK-35640          
1 66536U 25265W   26068.96215212  .00023191  00000+0  84926-3 0  9993
2 66536  42.9995 276.5185 0000163 152.7978 207.2882 15.27593141 17150
