[{"OBJECT_NAME":"TROLL","OBJECT_ID":"2025-009BB","EPOCH":"2026-03-09T05:24:19.835712","MEAN_MOTION":15.28164315,"ECCENTRICITY":0.00018165,"INCLINATION":97.3932,"RA_OF_ASC_NODE":150.7169,"ARG_OF_PERICENTER":59.185,"MEAN_ANOMALY":300.9568,"EPHEMERIS_TYPE":0,"CLASSIFICATION_TYPE":"U","NORAD_CAT_ID":62658,"ELEMENT_SET_NO":999,"REV_AT_EPOCH":11817,"BSTAR":0.00048220305,"MEAN_MOTION_DOT":0.00013174,"MEAN_MOTION_DDOT":0},{"OBJECT_NAME":"STARLINK-35640","OBJECT_ID":"2025-265W","EPOCH":"2026-03-09T23:05:29.944032","MEAN_MOTION":15.27593141,"ECCENTRICITY":1.627e-5,"INCLINATION":42.9995,"RA_OF_ASC_NODE":276.5185,"ARG_OF_PERICENTER":152.7978,"MEAN_ANOMALY":207.2882,"EPHEMERIS_TYPE":0,"CLASSIFICATION_TYPE":"U","NORAD_CAT_ID":66536,"ELEMENT_SET_NO":999,"REV_AT_EPOCH":1715,"BSTAR":0.00084926025,"MEAN_MOTION_DOT":0.00023191,"MEAN_MOTION_DDOT":0}]
